{
  "type": "FeatureCollection",
  "features": [
    {
      "type": "Feature",
      "properties": {
        "norad_id": 30847,
        "name": "FENGYUN 1C DEB",
        "group": "fengyun-1c-debris",
        "lat": -23.193902151653297,
        "lon": -46.629066237931944,
        "alt_km": 883.3529384212443,
        "timestamp": "2025-12-02T19:35:50.834958+00:00",
        "meta_object_name": "FENGYUN 1C DEB",
        "meta_object_id": "1999-025AWH",
        "meta_epoch": "2025-12-01T03:55:28.449408",
        "meta_mean_motion": 14.1688816,
        "meta_eccentricity": 0.0065294,
        "meta_inclination": 98.7319,
        "meta_ra_of_asc_node": 135.5241,
        "meta_arg_of_pericenter": 1.6684,
        "meta_mean_anomaly": 54.9234,
        "meta_ephemeris_type": 0,
        "meta_classification_type": "U",
        "meta_norad_cat_id": 30847,
        "meta_element_set_no": 999,
        "meta_rev_at_epoch": 95891,
        "meta_bstar": 0.002077,
        "meta_mean_motion_dot": 4.211e-05,
        "meta_mean_motion_ddot": 0,
        "tle_line1": "1 30847U 99025AWH 25335.16352372  .00004211  00000+0  20770-2 0  9999",
        "tle_line2": "2 30847  98.7319 135.5241 0065294   1.6684  54.9234 14.16888160958915"
      },
      "geometry": {
        "type": "Point",
        "coordinates": [
          -46.629066237931944,
          -23.193902151653297
        ]
      }
    },
    {
      "type": "Feature",
      "properties": {
        "norad_id": 30848,
        "name": "FENGYUN 1C DEB",
        "group": "fengyun-1c-debris",
        "lat": 40.26921188462075,
        "lon": 163.4052122497111,
        "alt_km": 748.5077710349597,
        "timestamp": "2025-12-02T19:35:50.834968+00:00",
        "meta_object_name": "FENGYUN 1C DEB",
        "meta_object_id": "1999-025AWJ",
        "meta_epoch": "2025-12-01T23:19:09.686496",
        "meta_mean_motion": 14.3437093,
        "meta_eccentricity": 0.00441753,
        "meta_inclination": 99.0609,
        "meta_ra_of_asc_node": 170.2892,
        "meta_arg_of_pericenter": 6.8445,
        "meta_mean_anomaly": 353.3333,
        "meta_ephemeris_type": 0,
        "meta_classification_type": "U",
        "meta_norad_cat_id": 30848,
        "meta_element_set_no": 999,
        "meta_rev_at_epoch": 97152,
        "meta_bstar": 0.0013235369,
        "meta_mean_motion_dot": 3.717e-05,
        "meta_mean_motion_ddot": 0,
        "tle_line1": "1 30848U 99025AWJ 25335.97163989  .00003717  00000+0  13235-2 0  9991",
        "tle_line2": "2 30848  99.0609 170.2892 0044175   6.8445 353.3333 14.34370930971526"
      },
      "geometry": {
        "type": "Point",
        "coordinates": [
          163.4052122497111,
          40.26921188462075
        ]
      }
    },
    {
      "type": "Feature",
      "properties": {
        "norad_id": 30849,
        "name": "FENGYUN 1C DEB",
        "group": "fengyun-1c-debris",
        "lat": -68.57097961414568,
        "lon": 60.574929385688215,
        "alt_km": 846.1113187899837,
        "timestamp": "2025-12-02T19:35:50.834978+00:00",
        "meta_object_name": "FENGYUN 1C DEB",
        "meta_object_id": "1999-025AWK",
        "meta_epoch": "2025-12-02T03:08:23.927136",
        "meta_mean_motion": 14.18766074,
        "meta_eccentricity": 0.00485266,
        "meta_inclination": 99.0498,
        "meta_ra_of_asc_node": 35.9168,
        "meta_arg_of_pericenter": 37.3041,
        "meta_mean_anomaly": 352.3282,
        "meta_ephemeris_type": 0,
        "meta_classification_type": "U",
        "meta_norad_cat_id": 30849,
        "meta_element_set_no": 999,
        "meta_rev_at_epoch": 96222,
        "meta_bstar": 0.0014958704,
        "meta_mean_motion_dot": 3.099e-05,
        "meta_mean_motion_ddot": 0,
        "tle_line1": "1 30849U 99025AWK 25336.13083249  .00003099  00000+0  14959-2 0  9998",
        "tle_line2": "2 30849  99.0498  35.9168 0048526  37.3041 352.3282 14.18766074962220"
      },
      "geometry": {
        "type": "Point",
        "coordinates": [
          60.574929385688215,
          -68.57097961414568
        ]
      }
    },
    {
      "type": "Feature",
      "properties": {
        "norad_id": 30850,
        "name": "FENGYUN 1C DEB",
        "group": "fengyun-1c-debris",
        "lat": -44.57551701762778,
        "lon": -148.75716943172299,
        "alt_km": 841.1593778871902,
        "timestamp": "2025-12-02T19:35:50.834989+00:00",
        "meta_object_name": "FENGYUN 1C DEB",
        "meta_object_id": "1999-025AWL",
        "meta_epoch": "2025-11-29T13:56:56.246784",
        "meta_mean_motion": 14.16119722,
        "meta_eccentricity": 0.01101947,
        "meta_inclination": 98.3938,
        "meta_ra_of_asc_node": 199.8275,
        "meta_arg_of_pericenter": 236.4308,
        "meta_mean_anomaly": 152.4439,
        "meta_ephemeris_type": 0,
        "meta_classification_type": "U",
        "meta_norad_cat_id": 30850,
        "meta_element_set_no": 999,
        "meta_rev_at_epoch": 95612,
        "meta_bstar": 0.0022004811,
        "meta_mean_motion_dot": 4.575e-05,
        "meta_mean_motion_ddot": 0,
        "tle_line1": "1 30850U 99025AWL 25333.58120656  .00004575  00000+0  22005-2 0  9991",
        "tle_line2": "2 30850  98.3938 199.8275 0110194 236.4308 152.4439 14.16119722956126"
      },
      "geometry": {
        "type": "Point",
        "coordinates": [
          -148.75716943172299,
          -44.57551701762778
        ]
      }
    },
    {
      "type": "Feature",
      "properties": {
        "norad_id": 30852,
        "name": "FENGYUN 1C DEB",
        "group": "fengyun-1c-debris",
        "lat": 29.59242127197702,
        "lon": 179.86171085067284,
        "alt_km": 872.6536392588168,
        "timestamp": "2025-12-02T19:35:50.834999+00:00",
        "meta_object_name": "FENGYUN 1C DEB",
        "meta_object_id": "1999-025AWN",
        "meta_epoch": "2025-12-02T00:09:09.428832",
        "meta_mean_motion": 14.10254914,
        "meta_eccentricity": 0.00556227,
        "meta_inclination": 98.7345,
        "meta_ra_of_asc_node": 354.0662,
        "meta_arg_of_pericenter": 265.4593,
        "meta_mean_anomaly": 94.0223,
        "meta_ephemeris_type": 0,
        "meta_classification_type": "U",
        "meta_norad_cat_id": 30852,
        "meta_element_set_no": 999,
        "meta_rev_at_epoch": 96231,
        "meta_bstar": 0.00054033067,
        "meta_mean_motion_dot": 9.28e-06,
        "meta_mean_motion_ddot": 0,
        "tle_line1": "1 30852U 99025AWN 25336.00635913  .00000928  00000+0  54033-3 0  9995",
        "tle_line2": "2 30852  98.7345 354.0662 0055622 265.4593  94.0223 14.10254914962318"
      },
      "geometry": {
        "type": "Point",
        "coordinates": [
          179.86171085067284,
          29.59242127197702
        ]
      }
    },
    {
      "type": "Feature",
      "properties": {
        "norad_id": 30856,
        "name": "FENGYUN 1C DEB",
        "group": "fengyun-1c-debris",
        "lat": 66.61846254390186,
        "lon": 1.4245344433990157,
        "alt_km": 792.2513148111766,
        "timestamp": "2025-12-02T19:35:50.835009+00:00",
        "meta_object_name": "FENGYUN 1C DEB",
        "meta_object_id": "1999-025AWS",
        "meta_epoch": "2025-12-01T11:46:02.003808",
        "meta_mean_motion": 14.45513052,
        "meta_eccentricity": 0.00897903,
        "meta_inclination": 98.2032,
        "meta_ra_of_asc_node": 160.6523,
        "meta_arg_of_pericenter": 272.6852,
        "meta_mean_anomaly": 141.9041,
        "meta_ephemeris_type": 0,
        "meta_classification_type": "U",
        "meta_norad_cat_id": 30856,
        "meta_element_set_no": 999,
        "meta_rev_at_epoch": 96363,
        "meta_bstar": 0.0058580829,
        "meta_mean_motion_dot": 0.00021729,
        "meta_mean_motion_ddot": 0,
        "tle_line1": "1 30856U 99025AWS 25335.49030097  .00021729  00000+0  58581-2 0  9996",
        "tle_line2": "2 30856  98.2032 160.6523 0089790 272.6852 141.9041 14.45513052963633"
      },
      "geometry": {
        "type": "Point",
        "coordinates": [
          1.4245344433990157,
          66.61846254390186
        ]
      }
    },
    {
      "type": "Feature",
      "properties": {
        "norad_id": 30857,
        "name": "FENGYUN 1C DEB",
        "group": "fengyun-1c-debris",
        "lat": 64.38263857204913,
        "lon": 165.16383898902882,
        "alt_km": 743.3189917968002,
        "timestamp": "2025-12-02T19:35:50.835020+00:00",
        "meta_object_name": "FENGYUN 1C DEB",
        "meta_object_id": "1999-025AWT",
        "meta_epoch": "2025-11-30T10:47:49.835040",
        "meta_mean_motion": 14.5075264,
        "meta_eccentricity": 0.0044105,
        "meta_inclination": 98.9754,
        "meta_ra_of_asc_node": 323.3958,
        "meta_arg_of_pericenter": 331.9164,
        "meta_mean_anomaly": 27.965,
        "meta_ephemeris_type": 0,
        "meta_classification_type": "U",
        "meta_norad_cat_id": 30857,
        "meta_element_set_no": 999,
        "meta_rev_at_epoch": 96545,
        "meta_bstar": 0.0067744434,
        "meta_mean_motion_dot": 0.00027044,
        "meta_mean_motion_ddot": 0,
        "tle_line1": "1 30857U 99025AWT 25334.44988235  .00027044  00000+0  67744-2 0  9994",
        "tle_line2": "2 30857  98.9754 323.3958 0044105 331.9164  27.9650 14.50752640965453"
      },
      "geometry": {
        "type": "Point",
        "coordinates": [
          165.16383898902882,
          64.38263857204913
        ]
      }
    }
  ]
}